{
  "type": "FeatureCollection",
  "metadata": {
    "generated": "2026-10-08",
    "source": "osm",
    "recordCount": 24
  },
  "features": [
    {
      "type": "Feature",
      "properties": {
        "id": "osm-node-1667654605",
        "name": "Ukjent lekeplass",
        "location": {
          "lat": 59.8378023,
          "lng": 10.6764016
        },
        "source": "osm",
        "sourceId": "node/1667654605",
        "images": [],
        "age": {
          "min": 0,
          "max": 16
        },
        "opening": "",
        "equipment": [],
        "rating": {
          "average": 0,
          "count": 0
        },
        "accessibility": {
          "wheelchair": "unknown",
          "stroller": "unknown"
        },
        "fenced": false,
        "toilets": false,
        "parking": {
          "free": true,
          "paid": false
        },
        "dogs": {
          "allowed": "unknown",
          "leash": "unknown"
        },
        "municipality": "os",
        "verified": false,
        "lastVerified": "2026-10-08",
        "sources": [
          {
            "type": "osm",
            "id": "node/1667654605",
            "retrievedAt": "2026-10-08"
          }
        ]
      },
      "geometry": {
        "type": "Point",
        "coordinates": [
          10.6764016,
          59.8378023
        ]
      }
    },
    {
      "type": "Feature",
      "properties": {
        "id": "osm-node-1999494286",
        "name": "Ukjent lekeplass",
        "location": {
          "lat": 59.8266545,
          "lng": 10.6339458
        },
        "source": "osm",
        "sourceId": "node/1999494286",
        "images": [],
        "age": {
          "min": 0,
          "max": 16
        },
        "opening": "",
        "equipment": [],
        "rating": {
          "average": 0,
          "count": 0
        },
        "accessibility": {
          "wheelchair": "unknown",
          "stroller": "unknown"
        },
        "fenced": false,
        "toilets": false,
        "parking": {
          "free": true,
          "paid": false
        },
        "dogs": {
          "allowed": "unknown",
          "leash": "unknown"
        },
        "municipality": "os",
        "verified": false,
        "lastVerified": "2026-10-08",
        "sources": [
          {
            "type": "osm",
            "id": "node/1999494286",
            "retrievedAt": "2026-10-08"
          }
        ]
      },
      "geometry": {
        "type": "Point",
        "coordinates": [
          10.6339458,
          59.8266545
        ]
      }
    },
    {
      "type": "Feature",
      "properties": {
        "id": "osm-node-6450596837",
        "name": "Ukjent lekeplass",
        "location": {
          "lat": 59.7547574,
          "lng": 10.7766815
        },
        "source": "osm",
        "sourceId": "node/6450596837",
        "images": [],
        "age": {
          "min": 0,
          "max": 16
        },
        "opening": "",
        "equipment": [],
        "rating": {
          "average": 0,
          "count": 0
        },
        "accessibility": {
          "wheelchair": "unknown",
          "stroller": "unknown"
        },
        "fenced": false,
        "toilets": false,
        "parking": {
          "free": true,
          "paid": false
        },
        "dogs": {
          "allowed": "unknown",
          "leash": "unknown"
        },
        "municipality": "os",
        "verified": false,
        "lastVerified": "2026-10-08",
        "sources": [
          {
            "type": "osm",
            "id": "node/6450596837",
            "retrievedAt": "2026-10-08"
          }
        ]
      },
      "geometry": {
        "type": "Point",
        "coordinates": [
          10.7766815,
          59.7547574
        ]
      }
    },
    {
      "type": "Feature",
      "properties": {
        "id": "osm-node-6450596853",
        "name": "Ukjent lekeplass",
        "location": {
          "lat": 59.7426968,
          "lng": 10.7671942
        },
        "source": "osm",
        "sourceId": "node/6450596853",
        "images": [],
        "age": {
          "min": 0,
          "max": 16
        },
        "opening": "",
        "equipment": [],
        "rating": {
          "average": 0,
          "count": 0
        },
        "accessibility": {
          "wheelchair": "unknown",
          "stroller": "unknown"
        },
        "fenced": false,
        "toilets": false,
        "parking": {
          "free": true,
          "paid": false
        },
        "dogs": {
          "allowed": "unknown",
          "leash": "unknown"
        },
        "municipality": "os",
        "verified": false,
        "lastVerified": "2026-10-08",
        "sources": [
          {
            "type": "osm",
            "id": "node/6450596853",
            "retrievedAt": "2026-10-08"
          }
        ]
      },
      "geometry": {
        "type": "Point",
        "coordinates": [
          10.7671942,
          59.7426968
        ]
      }
    },
    {
      "type": "Feature",
      "properties": {
        "id": "osm-node-8743793153",
        "name": "Ukjent lekeplass",
        "location": {
          "lat": 59.966943,
          "lng": 9.9965579
        },
        "source": "osm",
        "sourceId": "node/8743793153",
        "images": [],
        "age": {
          "min": 0,
          "max": 16
        },
        "opening": "",
        "equipment": [],
        "rating": {
          "average": 0,
          "count": 0
        },
        "accessibility": {
          "wheelchair": "unknown",
          "stroller": "unknown"
        },
        "fenced": false,
        "toilets": false,
        "parking": {
          "free": true,
          "paid": false
        },
        "dogs": {
          "allowed": "unknown",
          "leash": "unknown"
        },
        "municipality": "drammen",
        "verified": false,
        "lastVerified": "2026-10-08",
        "sources": [
          {
            "type": "osm",
            "id": "node/8743793153",
            "retrievedAt": "2026-10-08"
          }
        ]
      },
      "geometry": {
        "type": "Point",
        "coordinates": [
          9.9965579,
          59.966943
        ]
      }
    },
    {
      "type": "Feature",
      "properties": {
        "id": "osm-way-1026115930",
        "name": "Ukjent lekeplass",
        "location": {
          "lat": 59.7828698,
          "lng": 10.7382282
        },
        "source": "osm",
        "sourceId": "way/1026115930",
        "images": [],
        "age": {
          "min": 0,
          "max": 16
        },
        "opening": "",
        "equipment": [],
        "rating": {
          "average": 0,
          "count": 0
        },
        "accessibility": {
          "wheelchair": "unknown",
          "stroller": "unknown"
        },
        "fenced": false,
        "toilets": false,
        "parking": {
          "free": true,
          "paid": false
        },
        "dogs": {
          "allowed": "unknown",
          "leash": "unknown"
        },
        "municipality": "os",
        "verified": false,
        "lastVerified": "2026-10-08",
        "sources": [
          {
            "type": "osm",
            "id": "way/1026115930",
            "retrievedAt": "2026-10-08"
          }
        ]
      },
      "geometry": {
        "type": "Point",
        "coordinates": [
          10.7382282,
          59.7828698
        ]
      }
    },
    {
      "type": "Feature",
      "properties": {
        "id": "osm-way-1274478732",
        "name": "Ukjent lekeplass",
        "location": {
          "lat": 59.8251974,
          "lng": 10.6346033
        },
        "source": "osm",
        "sourceId": "way/1274478732",
        "images": [],
        "age": {
          "min": 0,
          "max": 16
        },
        "opening": "",
        "equipment": [],
        "rating": {
          "average": 0,
          "count": 0
        },
        "accessibility": {
          "wheelchair": "unknown",
          "stroller": "unknown"
        },
        "fenced": false,
        "toilets": false,
        "parking": {
          "free": true,
          "paid": false
        },
        "dogs": {
          "allowed": "unknown",
          "leash": "unknown"
        },
        "municipality": "os",
        "verified": false,
        "lastVerified": "2026-10-08",
        "sources": [
          {
            "type": "osm",
            "id": "way/1274478732",
            "retrievedAt": "2026-10-08"
          }
        ]
      },
      "geometry": {
        "type": "Point",
        "coordinates": [
          10.6346033,
          59.8251974
        ]
      }
    },
    {
      "type": "Feature",
      "properties": {
        "id": "osm-way-1308700153",
        "name": "Ukjent lekeplass",
        "location": {
          "lat": 59.9737167,
          "lng": 9.9900785
        },
        "source": "osm",
        "sourceId": "way/1308700153",
        "images": [],
        "age": {
          "min": 0,
          "max": 16
        },
        "opening": "",
        "equipment": [],
        "rating": {
          "average": 0,
          "count": 0
        },
        "accessibility": {
          "wheelchair": "unknown",
          "stroller": "unknown"
        },
        "fenced": false,
        "toilets": false,
        "parking": {
          "free": true,
          "paid": false
        },
        "dogs": {
          "allowed": "unknown",
          "leash": "unknown"
        },
        "municipality": "drammen",
        "verified": false,
        "lastVerified": "2026-10-08",
        "sources": [
          {
            "type": "osm",
            "id": "way/1308700153",
            "retrievedAt": "2026-10-08"
          }
        ]
      },
      "geometry": {
        "type": "Point",
        "coordinates": [
          9.9900785,
          59.9737167
        ]
      }
    },
    {
      "type": "Feature",
      "properties": {
        "id": "osm-way-1488652753",
        "name": "Ukjent lekeplass",
        "location": {
          "lat": 59.8371715,
          "lng": 10.6766645
        },
        "source": "osm",
        "sourceId": "way/1488652753",
        "images": [],
        "age": {
          "min": 0,
          "max": 16
        },
        "opening": "",
        "equipment": [],
        "rating": {
          "average": 0,
          "count": 0
        },
        "accessibility": {
          "wheelchair": "unknown",
          "stroller": "unknown"
        },
        "fenced": false,
        "toilets": false,
        "parking": {
          "free": true,
          "paid": false
        },
        "dogs": {
          "allowed": "unknown",
          "leash": "unknown"
        },
        "municipality": "os",
        "verified": false,
        "lastVerified": "2026-10-08",
        "sources": [
          {
            "type": "osm",
            "id": "way/1488652753",
            "retrievedAt": "2026-10-08"
          }
        ]
      },
      "geometry": {
        "type": "Point",
        "coordinates": [
          10.6766645,
          59.8371715
        ]
      }
    },
    {
      "type": "Feature",
      "properties": {
        "id": "osm-way-1488652756",
        "name": "Ukjent lekeplass",
        "location": {
          "lat": 59.8380833,
          "lng": 10.6779119
        },
        "source": "osm",
        "sourceId": "way/1488652756",
        "images": [],
        "age": {
          "min": 0,
          "max": 16
        },
        "opening": "",
        "equipment": [],
        "rating": {
          "average": 0,
          "count": 0
        },
        "accessibility": {
          "wheelchair": "unknown",
          "stroller": "unknown"
        },
        "fenced": false,
        "toilets": false,
        "parking": {
          "free": true,
          "paid": false
        },
        "dogs": {
          "allowed": "unknown",
          "leash": "unknown"
        },
        "municipality": "os",
        "verified": false,
        "lastVerified": "2026-10-08",
        "sources": [
          {
            "type": "osm",
            "id": "way/1488652756",
            "retrievedAt": "2026-10-08"
          }
        ]
      },
      "geometry": {
        "type": "Point",
        "coordinates": [
          10.6779119,
          59.8380833
        ]
      }
    },
    {
      "type": "Feature",
      "properties": {
        "id": "osm-way-614069699",
        "name": "Ukjent lekeplass",
        "location": {
          "lat": 59.7482553,
          "lng": 10.7770098
        },
        "source": "osm",
        "sourceId": "way/614069699",
        "images": [],
        "age": {
          "min": 0,
          "max": 16
        },
        "opening": "",
        "equipment": [],
        "rating": {
          "average": 0,
          "count": 0
        },
        "accessibility": {
          "wheelchair": "unknown",
          "stroller": "unknown"
        },
        "fenced": false,
        "toilets": false,
        "parking": {
          "free": true,
          "paid": false
        },
        "dogs": {
          "allowed": "unknown",
          "leash": "unknown"
        },
        "municipality": "os",
        "verified": false,
        "lastVerified": "2026-10-08",
        "sources": [
          {
            "type": "osm",
            "id": "way/614069699",
            "retrievedAt": "2026-10-08"
          }
        ]
      },
      "geometry": {
        "type": "Point",
        "coordinates": [
          10.7770098,
          59.7482553
        ]
      }
    },
    {
      "type": "Feature",
      "properties": {
        "id": "osm-way-816453554",
        "name": "Ukjent lekeplass",
        "location": {
          "lat": 59.8264157,
          "lng": 10.6352684
        },
        "source": "osm",
        "sourceId": "way/816453554",
        "images": [],
        "age": {
          "min": 0,
          "max": 16
        },
        "opening": "",
        "equipment": [],
        "rating": {
          "average": 0,
          "count": 0
        },
        "accessibility": {
          "wheelchair": "unknown",
          "stroller": "unknown"
        },
        "fenced": false,
        "toilets": false,
        "parking": {
          "free": true,
          "paid": false
        },
        "dogs": {
          "allowed": "unknown",
          "leash": "unknown"
        },
        "municipality": "os",
        "verified": false,
        "lastVerified": "2026-10-08",
        "sources": [
          {
            "type": "osm",
            "id": "way/816453554",
            "retrievedAt": "2026-10-08"
          }
        ]
      },
      "geometry": {
        "type": "Point",
        "coordinates": [
          10.6352684,
          59.8264157
        ]
      }
    },
    {
      "type": "Feature",
      "properties": {
        "id": "osm-way-816453578",
        "name": "Ukjent lekeplass",
        "location": {
          "lat": 59.8240528,
          "lng": 10.6334931
        },
        "source": "osm",
        "sourceId": "way/816453578",
        "images": [],
        "age": {
          "min": 0,
          "max": 16
        },
        "opening": "",
        "equipment": [],
        "rating": {
          "average": 0,
          "count": 0
        },
        "accessibility": {
          "wheelchair": "unknown",
          "stroller": "unknown"
        },
        "fenced": false,
        "toilets": false,
        "parking": {
          "free": true,
          "paid": false
        },
        "dogs": {
          "allowed": "unknown",
          "leash": "unknown"
        },
        "municipality": "os",
        "verified": false,
        "lastVerified": "2026-10-08",
        "sources": [
          {
            "type": "osm",
            "id": "way/816453578",
            "retrievedAt": "2026-10-08"
          }
        ]
      },
      "geometry": {
        "type": "Point",
        "coordinates": [
          10.6334931,
          59.8240528
        ]
      }
    },
    {
      "type": "Feature",
      "properties": {
        "id": "osm-way-816474516",
        "name": "Ukjent lekeplass",
        "location": {
          "lat": 59.8292503,
          "lng": 10.6415442
        },
        "source": "osm",
        "sourceId": "way/816474516",
        "images": [],
        "age": {
          "min": 0,
          "max": 16
        },
        "opening": "",
        "equipment": [],
        "rating": {
          "average": 0,
          "count": 0
        },
        "accessibility": {
          "wheelchair": "unknown",
          "stroller": "unknown"
        },
        "fenced": false,
        "toilets": false,
        "parking": {
          "free": true,
          "paid": false
        },
        "dogs": {
          "allowed": "unknown",
          "leash": "unknown"
        },
        "municipality": "os",
        "verified": false,
        "lastVerified": "2026-10-08",
        "sources": [
          {
            "type": "osm",
            "id": "way/816474516",
            "retrievedAt": "2026-10-08"
          }
        ]
      },
      "geometry": {
        "type": "Point",
        "coordinates": [
          10.6415442,
          59.8292503
        ]
      }
    },
    {
      "type": "Feature",
      "properties": {
        "id": "osm-way-816474518",
        "name": "Ukjent lekeplass",
        "location": {
          "lat": 59.829229,
          "lng": 10.6428381
        },
        "source": "osm",
        "sourceId": "way/816474518",
        "images": [],
        "age": {
          "min": 0,
          "max": 16
        },
        "opening": "",
        "equipment": [],
        "rating": {
          "average": 0,
          "count": 0
        },
        "accessibility": {
          "wheelchair": "unknown",
          "stroller": "unknown"
        },
        "fenced": false,
        "toilets": false,
        "parking": {
          "free": true,
          "paid": false
        },
        "dogs": {
          "allowed": "unknown",
          "leash": "unknown"
        },
        "municipality": "os",
        "verified": false,
        "lastVerified": "2026-10-08",
        "sources": [
          {
            "type": "osm",
            "id": "way/816474518",
            "retrievedAt": "2026-10-08"
          }
        ]
      },
      "geometry": {
        "type": "Point",
        "coordinates": [
          10.6428381,
          59.829229
        ]
      }
    },
    {
      "type": "Feature",
      "properties": {
        "id": "osm-way-816477514",
        "name": "Ukjent lekeplass",
        "location": {
          "lat": 59.8304107,
          "lng": 10.6361184
        },
        "source": "osm",
        "sourceId": "way/816477514",
        "images": [],
        "age": {
          "min": 0,
          "max": 16
        },
        "opening": "",
        "equipment": [],
        "rating": {
          "average": 0,
          "count": 0
        },
        "accessibility": {
          "wheelchair": "unknown",
          "stroller": "unknown"
        },
        "fenced": false,
        "toilets": false,
        "parking": {
          "free": true,
          "paid": false
        },
        "dogs": {
          "allowed": "unknown",
          "leash": "unknown"
        },
        "municipality": "os",
        "verified": false,
        "lastVerified": "2026-10-08",
        "sources": [
          {
            "type": "osm",
            "id": "way/816477514",
            "retrievedAt": "2026-10-08"
          }
        ]
      },
      "geometry": {
        "type": "Point",
        "coordinates": [
          10.6361184,
          59.8304107
        ]
      }
    },
    {
      "type": "Feature",
      "properties": {
        "id": "osm-way-818564033",
        "name": "Ukjent lekeplass",
        "location": {
          "lat": 59.8342909,
          "lng": 10.6459423
        },
        "source": "osm",
        "sourceId": "way/818564033",
        "images": [],
        "age": {
          "min": 0,
          "max": 16
        },
        "opening": "",
        "equipment": [],
        "rating": {
          "average": 0,
          "count": 0
        },
        "accessibility": {
          "wheelchair": "unknown",
          "stroller": "unknown"
        },
        "fenced": false,
        "toilets": false,
        "parking": {
          "free": true,
          "paid": false
        },
        "dogs": {
          "allowed": "unknown",
          "leash": "unknown"
        },
        "municipality": "os",
        "verified": false,
        "lastVerified": "2026-10-08",
        "sources": [
          {
            "type": "osm",
            "id": "way/818564033",
            "retrievedAt": "2026-10-08"
          }
        ]
      },
      "geometry": {
        "type": "Point",
        "coordinates": [
          10.6459423,
          59.8342909
        ]
      }
    },
    {
      "type": "Feature",
      "properties": {
        "id": "osm-way-819209564",
        "name": "Ukjent lekeplass",
        "location": {
          "lat": 59.7377134,
          "lng": 10.7297145
        },
        "source": "osm",
        "sourceId": "way/819209564",
        "images": [],
        "age": {
          "min": 0,
          "max": 16
        },
        "opening": "",
        "equipment": [],
        "rating": {
          "average": 0,
          "count": 0
        },
        "accessibility": {
          "wheelchair": "unknown",
          "stroller": "unknown"
        },
        "fenced": false,
        "toilets": false,
        "parking": {
          "free": true,
          "paid": false
        },
        "dogs": {
          "allowed": "unknown",
          "leash": "unknown"
        },
        "municipality": "os",
        "verified": false,
        "lastVerified": "2026-10-08",
        "sources": [
          {
            "type": "osm",
            "id": "way/819209564",
            "retrievedAt": "2026-10-08"
          }
        ]
      },
      "geometry": {
        "type": "Point",
        "coordinates": [
          10.7297145,
          59.7377134
        ]
      }
    },
    {
      "type": "Feature",
      "properties": {
        "id": "osm-way-819209565",
        "name": "Ukjent lekeplass",
        "location": {
          "lat": 59.7374525,
          "lng": 10.7285893
        },
        "source": "osm",
        "sourceId": "way/819209565",
        "images": [],
        "age": {
          "min": 0,
          "max": 16
        },
        "opening": "",
        "equipment": [],
        "rating": {
          "average": 0,
          "count": 0
        },
        "accessibility": {
          "wheelchair": "unknown",
          "stroller": "unknown"
        },
        "fenced": false,
        "toilets": false,
        "parking": {
          "free": true,
          "paid": false
        },
        "dogs": {
          "allowed": "unknown",
          "leash": "unknown"
        },
        "municipality": "os",
        "verified": false,
        "lastVerified": "2026-10-08",
        "sources": [
          {
            "type": "osm",
            "id": "way/819209565",
            "retrievedAt": "2026-10-08"
          }
        ]
      },
      "geometry": {
        "type": "Point",
        "coordinates": [
          10.7285893,
          59.7374525
        ]
      }
    },
    {
      "type": "Feature",
      "properties": {
        "id": "osm-way-833512418",
        "name": "Ukjent lekeplass",
        "location": {
          "lat": 59.7903436,
          "lng": 10.6906607
        },
        "source": "osm",
        "sourceId": "way/833512418",
        "images": [],
        "age": {
          "min": 0,
          "max": 16
        },
        "opening": "",
        "equipment": [],
        "rating": {
          "average": 0,
          "count": 0
        },
        "accessibility": {
          "wheelchair": "unknown",
          "stroller": "unknown"
        },
        "fenced": false,
        "toilets": false,
        "parking": {
          "free": true,
          "paid": false
        },
        "dogs": {
          "allowed": "unknown",
          "leash": "unknown"
        },
        "municipality": "os",
        "verified": false,
        "lastVerified": "2026-10-08",
        "sources": [
          {
            "type": "osm",
            "id": "way/833512418",
            "retrievedAt": "2026-10-08"
          }
        ]
      },
      "geometry": {
        "type": "Point",
        "coordinates": [
          10.6906607,
          59.7903436
        ]
      }
    },
    {
      "type": "Feature",
      "properties": {
        "id": "osm-way-840110880",
        "name": "Ukjent lekeplass",
        "location": {
          "lat": 59.8178741,
          "lng": 10.6221985
        },
        "source": "osm",
        "sourceId": "way/840110880",
        "images": [],
        "age": {
          "min": 0,
          "max": 16
        },
        "opening": "",
        "equipment": [],
        "rating": {
          "average": 0,
          "count": 0
        },
        "accessibility": {
          "wheelchair": "unknown",
          "stroller": "unknown"
        },
        "fenced": false,
        "toilets": false,
        "parking": {
          "free": true,
          "paid": false
        },
        "dogs": {
          "allowed": "unknown",
          "leash": "unknown"
        },
        "municipality": "os",
        "verified": false,
        "lastVerified": "2026-10-08",
        "sources": [
          {
            "type": "osm",
            "id": "way/840110880",
            "retrievedAt": "2026-10-08"
          }
        ]
      },
      "geometry": {
        "type": "Point",
        "coordinates": [
          10.6221985,
          59.8178741
        ]
      }
    },
    {
      "type": "Feature",
      "properties": {
        "id": "osm-way-880811640",
        "name": "Ukjent lekeplass",
        "location": {
          "lat": 59.8139563,
          "lng": 10.7772754
        },
        "source": "osm",
        "sourceId": "way/880811640",
        "images": [],
        "age": {
          "min": 0,
          "max": 16
        },
        "opening": "",
        "equipment": [],
        "rating": {
          "average": 0,
          "count": 0
        },
        "accessibility": {
          "wheelchair": "unknown",
          "stroller": "unknown"
        },
        "fenced": false,
        "toilets": false,
        "parking": {
          "free": true,
          "paid": false
        },
        "dogs": {
          "allowed": "unknown",
          "leash": "unknown"
        },
        "municipality": "os",
        "verified": false,
        "lastVerified": "2026-10-08",
        "sources": [
          {
            "type": "osm",
            "id": "way/880811640",
            "retrievedAt": "2026-10-08"
          }
        ]
      },
      "geometry": {
        "type": "Point",
        "coordinates": [
          10.7772754,
          59.8139563
        ]
      }
    },
    {
      "type": "Feature",
      "properties": {
        "id": "osm-way-887996295",
        "name": "Ukjent lekeplass",
        "location": {
          "lat": 59.8184771,
          "lng": 10.7792435
        },
        "source": "osm",
        "sourceId": "way/887996295",
        "images": [],
        "age": {
          "min": 0,
          "max": 16
        },
        "opening": "",
        "equipment": [],
        "rating": {
          "average": 0,
          "count": 0
        },
        "accessibility": {
          "wheelchair": "unknown",
          "stroller": "unknown"
        },
        "fenced": false,
        "toilets": false,
        "parking": {
          "free": true,
          "paid": false
        },
        "dogs": {
          "allowed": "unknown",
          "leash": "unknown"
        },
        "municipality": "os",
        "verified": false,
        "lastVerified": "2026-10-08",
        "sources": [
          {
            "type": "osm",
            "id": "way/887996295",
            "retrievedAt": "2026-10-08"
          }
        ]
      },
      "geometry": {
        "type": "Point",
        "coordinates": [
          10.7792435,
          59.8184771
        ]
      }
    },
    {
      "type": "Feature",
      "properties": {
        "id": "osm-way-945140310",
        "name": "Ukjent lekeplass",
        "location": {
          "lat": 59.8356646,
          "lng": 10.6414433
        },
        "source": "osm",
        "sourceId": "way/945140310",
        "images": [],
        "age": {
          "min": 0,
          "max": 16
        },
        "opening": "",
        "equipment": [],
        "rating": {
          "average": 0,
          "count": 0
        },
        "accessibility": {
          "wheelchair": "unknown",
          "stroller": "unknown"
        },
        "fenced": false,
        "toilets": false,
        "parking": {
          "free": true,
          "paid": false
        },
        "dogs": {
          "allowed": "unknown",
          "leash": "unknown"
        },
        "municipality": "os",
        "verified": false,
        "lastVerified": "2026-10-08",
        "sources": [
          {
            "type": "osm",
            "id": "way/945140310",
            "retrievedAt": "2026-10-08"
          }
        ]
      },
      "geometry": {
        "type": "Point",
        "coordinates": [
          10.6414433,
          59.8356646
        ]
      }
    }
  ]
}